SKYSAT-C1               
1 41601U 16040C   26198.04294710  .00005058  00000+0  14290-3 0  9992
2 41601  96.9547 228.1510 0000261 236.3178 123.8043 15.36766876562450
LAPAN-A3                
1 41603U 16040E   26198.93112122  .00001711  00000+0  55476-4 0  9992
2 41603  97.1506 194.0729 0008262 264.0845  95.9457 15.33287899559523
GAOFEN-3                
1 41727U 16049A   26198.95715829 -.00000183  00000+0 -42388-4 0  9995
2 41727  98.4013 206.2792 0001750  82.6083 277.5305 14.42218397523084
SKYSAT-C4               
1 41771U 16058B   26198.04736832  .00009969  00000+0  18273-3 0  9995
2 41771  96.9161 218.5856 0003478 114.9854 245.1760 15.49475207550091
SKYSAT-C5               
1 41772U 16058C   26198.10333753  .00003812  00000+0  11912-3 0  9992
2 41772  97.0451 237.4000 0002753 155.5860 204.5514 15.33734076548335
SKYSAT-C2               
1 41773U 16058D   26198.29708365  .00006528  00000+0  15146-3 0  9998
2 41773  97.0158 219.2705 0001114 343.1238  16.9973 15.42708898549691
SKYSAT-C3               
1 41774U 16058E   26198.03754474  .00014444  00000+0  22667-3 0  9995
2 41774  96.8991 227.7582 0002623 130.7873 229.3610 15.53761650550745
ALSAT-1B                
1 41785U 16059C   26198.95940104 -.00000079  00000+0 -50386-5 0  9998
2 41785  97.7752 206.3957 0010471 121.9628 238.2600 14.72294890525108
PATHFINDER 1            
1 41787U 16059E   26198.95211560  .00000260  00000+0  53605-4 0  9993
2 41787  97.8178 196.8416 0029909 107.3559 253.0921 14.67694949524229
SCATSAT 1               
1 41790U 16059H   26198.78156140  .00000600  00000+0  85533-4 0  9993
2 41790  98.1176 262.8613 0055394 148.3439 212.1123 14.79590730106117
GOKTURK 1A              
1 41875U 16073A   26198.89050519  .00000375  00000+0  82637-4 0  9999
2 41875  98.1210  93.0786 0001431  81.4747 278.6617 14.62794967513316
RESOURCESAT-2A          
1 41877U 16074A   26198.89829595  .00000229  00000+0  12476-3 0  9991
2 41877  98.7519 272.1499 0002236  21.8555 338.2717 14.21609556498664
CARTOSAT-2D             
1 41948U 17008A   26198.98261478  .00001372  00000+0  68209-4 0  9994
2 41948  97.4084 257.7104 0006215 131.1831 228.9941 15.19293702522258
SENTINEL-2B             
1 42063U 17013A   26198.97674340 -.00000029  00000+0  54347-5 0  9992
2 42063  98.5684 273.3151 0001218  92.0641 268.0681 14.30815236489042
CARTOSAT-2E             
1 42767U 17036C   26198.93457159  .00001267  00000+0  63311-4 0  9995
2 42767  97.4255 258.2272 0003555 177.3894 182.7360 15.19264525502818
FORMOSAT-5              
1 42920U 17049A   26198.94833668  .00000033  00000+0  19520-4 0  9997
2 42920  98.2245 273.5734 0011141 355.3173   4.7916 14.50908234471134
SENTINEL-5P             
1 42969U 17064A   26198.86323805  .00000009  00000+0  25401-4 0  9993
2 42969  98.7929 140.7776 0001161  94.1328 265.9981 14.19523493453917
SKYSAT-C11              
1 42987U 17068A   26198.93692861  .00017166  00000+0  21849-3 0  9999
2 42987  97.4388 349.1483 0001289 155.4215 204.7103 15.59422768488035
SKYSAT-C10              
1 42988U 17068B   26198.93301374  .00005959  00000+0  17711-3 0  9996
2 42988  97.4547 336.0968 0001524 111.3925 248.7481 15.35149496487075
SKYSAT-C9               
1 42989U 17068C   26198.93471131  .00007151  00000+0  16826-3 0  9998
2 42989  97.4467 337.3319 0008411  35.9309 324.2502 15.42254918487494
SKYSAT-C8               
1 42990U 17068D   26198.92216577  .00005875  00000+0  16192-3 0  9997
2 42990  97.4564 336.0041 0001239 103.5918 256.5464 15.37523384487035
SKYSAT-C7               
1 42991U 17068E   26198.91673559  .00005655  00000+0  15614-3 0  9998
2 42991  97.4575 336.9903 0005505  11.9593 348.1781 15.37473008487098
SKYSAT-C6               
1 42992U 17068F   26198.86718076  .00005065  00000+0  15546-3 0  9996
2 42992  97.4612 336.7817 0005052  82.8828 277.2989 15.34196805487027
CARTOSAT-2F             
1 43111U 18004A   26198.96725336  .00002239  00000+0  10970-3 0  9995
2 43111  97.4768 258.2984 0002431 127.8594 232.2861 15.19185208472004
GAOFEN-1 02             
1 43259U 18031A   26198.93091402  .00000157  00000+0  30021-4 0  9992
2 43259  98.0511 261.3694 0001472 269.4236  90.6805 14.76472850447238
GAOFEN-1 03             
1 43260U 18031B   26198.97679873  .00000321  00000+0  53560-4 0  9998
2 43260  98.0502 261.2701 0002191   7.5378 352.5865 14.76464634447232
GAOFEN-1 04             
1 43262U 18031D   26198.95250649  .00000778  00000+0  11920-3 0  9993
2 43262  98.0511 261.4407 0001066  50.7509 309.3795 14.76441243447227
SENTINEL-3B             
1 43437U 18039A   26198.83645340  .00000049  00000+0  38405-4 0  9997
2 43437  98.6235 265.9266 0001210 119.6038 240.5263 14.26736832428495
GAOFEN-5 01             
1 43461U 18043A   26198.88881622  .00000134  00000+0  37553-4 0  9997
2 43461  98.4592 171.1238 0001941  26.2193 333.9104 14.60624351436174
GAOFEN-6                
1 43484U 18048A   26198.97519973 -.00000031  00000+0  31496-5 0  9992
2 43484  98.0954 261.6835 0012102  73.6160 286.6379 14.76384403437937
